[{"OBJECT_NAME":"STARLINK-31432","OBJECT_ID":"2024-106L","EPOCH":"2026-03-09T21:36:19.774368","MEAN_MOTION":15.27564762,"ECCENTRICITY":0.00017264,"INCLINATION":42.9999,"RA_OF_ASC_NODE":331.4538,"ARG_OF_PERICENTER":253.5759,"MEAN_ANOMALY":106.4903,"EPHEMERIS_TYPE":0,"CLASSIFICATION_TYPE":"U","NORAD_CAT_ID":59932,"ELEMENT_SET_NO":999,"REV_AT_EPOCH":10054,"BSTAR":8.3561477e-5,"MEAN_MOTION_DOT":2.037e-5,"MEAN_MOTION_DDOT":0},{"OBJECT_NAME":"FLOCK 4G-26","OBJECT_ID":"2025-009AA","EPOCH":"2026-03-09T19:19:02.910720","MEAN_MOTION":15.27281631,"ECCENTRICITY":0.0001988,"INCLINATION":97.4054,"RA_OF_ASC_NODE":151.3913,"ARG_OF_PERICENTER":299.1273,"MEAN_ANOMALY":60.9767,"EPHEMERIS_TYPE":0,"CLASSIFICATION_TYPE":"U","NORAD_CAT_ID":62633,"ELEMENT_SET_NO":999,"REV_AT_EPOCH":6373,"BSTAR":0.00042468806,"MEAN_MOTION_DOT":0.00011283,"MEAN_MOTION_DDOT":0}]
